[{"OBJECT_NAME":"ONEWEB-0327","OBJECT_ID":"2021-083L","EPOCH":"2026-03-09T19:57:16.761600","MEAN_MOTION":13.18683947,"ECCENTRICITY":0.00013872,"INCLINATION":87.9243,"RA_OF_ASC_NODE":355.1992,"ARG_OF_PERICENTER":72.1565,"MEAN_ANOMALY":287.9718,"EPHEMERIS_TYPE":0,"CLASSIFICATION_TYPE":"U","NORAD_CAT_ID":49196,"ELEMENT_SET_NO":999,"REV_AT_EPOCH":21692,"BSTAR":0.00015807466,"MEAN_MOTION_DOT":7.5e-7,"MEAN_MOTION_DDOT":0},{"OBJECT_NAME":"SL-14 DEB","OBJECT_ID":"1991-056U","EPOCH":"2026-03-09T21:38:35.637504","MEAN_MOTION":13.16787304,"ECCENTRICITY":0.00154221,"INCLINATION":82.6187,"RA_OF_ASC_NODE":227.6273,"ARG_OF_PERICENTER":80.2108,"MEAN_ANOMALY":280.0755,"EPHEMERIS_TYPE":0,"CLASSIFICATION_TYPE":"U","NORAD_CAT_ID":45282,"ELEMENT_SET_NO":999,"REV_AT_EPOCH":29131,"BSTAR":0.0016322348,"MEAN_MOTION_DOT":6.39e-6,"MEAN_MOTION_DDOT":0}]
